[{"OBJECT_NAME":"STARLINK-5710","OBJECT_ID":"2023-020AZ","EPOCH":"2026-03-09T04:11:11.513184","MEAN_MOTION":15.03196778,"ECCENTRICITY":8.365e-5,"INCLINATION":43.0044,"RA_OF_ASC_NODE":354.3062,"ARG_OF_PERICENTER":293.6601,"MEAN_ANOMALY":66.4154,"EPHEMERIS_TYPE":0,"CLASSIFICATION_TYPE":"U","NORAD_CAT_ID":55616,"ELEMENT_SET_NO":999,"REV_AT_EPOCH":16899,"BSTAR":0.0057327194,"MEAN_MOTION_DOT":0.00079505,"MEAN_MOTION_DDOT":0},{"OBJECT_NAME":"CZ-6A DEB","OBJECT_ID":"2022-151BB","EPOCH":"2026-03-09T17:16:48.853632","MEAN_MOTION":14.94828895,"ECCENTRICITY":0.00449007,"INCLINATION":98.6423,"RA_OF_ASC_NODE":141.5544,"ARG_OF_PERICENTER":201.6501,"MEAN_ANOMALY":158.2819,"EPHEMERIS_TYPE":0,"CLASSIFICATION_TYPE":"U","NORAD_CAT_ID":54308,"ELEMENT_SET_NO":999,"REV_AT_EPOCH":17599,"BSTAR":0.0053055882,"MEAN_MOTION_DOT":0.00059316,"MEAN_MOTION_DDOT":0}]
